{"type": "FeatureCollection", "features": [ {"type": "Feature", "properties": {"norad_id": 66423, "name": "STARLINK-35618", "group": "last-30-days", "lat": 37.38735699108637, "lon": 163.67394374683093, "alt_km": 411.0531075046629, "timestamp": "2025-12-02T06:27:51.800693+00:00", "meta": {"OBJECT_NAME": "STARLINK-35618", "OBJECT_ID": "2025-259B", "EPOCH": "2025-12-01T20:00:01.999008", "MEAN_MOTION": 15.51414599, "ECCENTRICITY": 0.0001502, "INCLINATION": 42.9994, "RA_OF_ASC_NODE": 111.1293, "ARG_OF_PERICENTER": 273.4271, "MEAN_ANOMALY": 232.4868, "EPHEMERIS_TYPE": 0, "CLASSIFICATION_TYPE": "U", "NORAD_CAT_ID": 66423, "ELEMENT_SET_NO": 999, "REV_AT_EPOCH": 452, "BSTAR": -0.022338, "MEAN_MOTION_DOT": -0.01227851, "MEAN_MOTION_DDOT": 0}, "tle": {"line1": "1 66423U 25259B   25335.83335647 -.01227851  00000+0 -22338-1 0  9997", "line2": "2 66423  42.9994 111.1293 0001502 273.4271 232.4868 15.51414599  4520"}}, "geometry": {"type": "Point", "coordinates": [163.67394374683093, 37.38735699108637]}}, {"type": "Feature", "properties": {"norad_id": 66424, "name": "STARLINK-35588", "group": "last-30-days", "lat": 38.11459163929725, "lon": 165.9151339190943, "alt_km": 410.95559510280236, "timestamp": "2025-12-02T06:27:51.800703+00:00", "meta": {"OBJECT_NAME": "STARLINK-35588", "OBJECT_ID": "2025-259C", "EPOCH": "2025-12-01T20:00:01.999008", "MEAN_MOTION": 15.51417387, "ECCENTRICITY": 0.000152, "INCLINATION": 42.9995, "RA_OF_ASC_NODE": 111.1254, "ARG_OF_PERICENTER": 275.5343, "MEAN_ANOMALY": 232.2958, "EPHEMERIS_TYPE": 0, "CLASSIFICATION_TYPE": "U", "NORAD_CAT_ID": 66424, "ELEMENT_SET_NO": 999, "REV_AT_EPOCH": 452, "BSTAR": -0.02246, "MEAN_MOTION_DOT": -0.01234069, "MEAN_MOTION_DDOT": 0}, "tle": {"line1": "1 66424U 25259C   25335.83335647 -.01234069  00000+0 -22460-1 0  9993", "line2": "2 66424  42.9995 111.1254 0001520 275.5343 232.2958 15.51417387  4528"}}, "geometry": {"type": "Point", "coordinates": [165.9151339190943, 38.11459163929725]}}, {"type": "Feature", "properties": {"norad_id": 66425, "name": "STARLINK-35555", "group": "last-30-days", "lat": 38.79805803035353, "lon": 168.19605160023076, "alt_km": 410.7731980597837, "timestamp": "2025-12-02T06:27:51.800715+00:00", "meta": {"OBJECT_NAME": "STARLINK-35555", "OBJECT_ID": "2025-259D", "EPOCH": "2025-12-01T20:00:01.999008", "MEAN_MOTION": 15.51417915, "ECCENTRICITY": 0.0001413, "INCLINATION": 42.9997, "RA_OF_ASC_NODE": 111.1185, "ARG_OF_PERICENTER": 280.1428, "MEAN_ANOMALY": 229.6074, "EPHEMERIS_TYPE": 0, "CLASSIFICATION_TYPE": "U", "NORAD_CAT_ID": 66425, "ELEMENT_SET_NO": 999, "REV_AT_EPOCH": 452, "BSTAR": -0.022612, "MEAN_MOTION_DOT": -0.01241655, "MEAN_MOTION_DDOT": 0}, "tle": {"line1": "1 66425U 25259D   25335.83335647 -.01241655  00000+0 -22612-1 0  9992", "line2": "2 66425  42.9997 111.1185 0001413 280.1428 229.6074 15.51417915  4527"}}, "geometry": {"type": "Point", "coordinates": [168.19605160023076, 38.79805803035353]}}, {"type": "Feature", "properties": {"norad_id": 66426, "name": "STARLINK-35589", "group": "last-30-days", "lat": 39.43559516052971, "lon": 170.5232136397032, "alt_km": 410.7387303325286, "timestamp": "2025-12-02T06:27:51.800725+00:00", "meta": {"OBJECT_NAME": "STARLINK-35589", "OBJECT_ID": "2025-259E", "EPOCH": "2025-12-01T20:00:01.999008", "MEAN_MOTION": 15.51412442, "ECCENTRICITY": 0.0001434, "INCLINATION": 42.9995, "RA_OF_ASC_NODE": 111.1154, "ARG_OF_PERICENTER": 276.7847, "MEAN_ANOMALY": 234.8838, "EPHEMERIS_TYPE": 0, "CLASSIFICATION_TYPE": "U", "NORAD_CAT_ID": 66426, "ELEMENT_SET_NO": 999, "REV_AT_EPOCH": 452, "BSTAR": -0.022464, "MEAN_MOTION_DOT": -0.01234049, "MEAN_MOTION_DDOT": 0}, "tle": {"line1": "1 66426U 25259E   25335.83335647 -.01234049  00000+0 -22464-1 0  9997", "line2": "2 66426  42.9995 111.1154 0001434 276.7847 234.8838 15.51412442  4527"}}, "geometry": {"type": "Point", "coordinates": [170.5232136397032, 39.43559516052971]}}, {"type": "Feature", "properties": {"norad_id": 66427, "name": "STARLINK-35611", "group": "last-30-days", "lat": 40.026306025235996, "lon": 172.8905145091943, "alt_km": 410.75799808379725, "timestamp": "2025-12-02T06:27:51.800737+00:00", "meta": {"OBJECT_NAME": "STARLINK-35611", "OBJECT_ID": "2025-259F", "EPOCH": "2025-12-01T20:00:01.999008", "MEAN_MOTION": 15.51420859, "ECCENTRICITY": 0.0001503, "INCLINATION": 42.9995, "RA_OF_ASC_NODE": 111.1097, "ARG_OF_PERICENTER": 273.0199, "MEAN_ANOMALY": 240.5616, "EPHEMERIS_TYPE": 0, "CLASSIFICATION_TYPE": "U", "NORAD_CAT_ID": 66427, "ELEMENT_SET_NO": 999, "REV_AT_EPOCH": 452, "BSTAR": -0.022688, "MEAN_MOTION_DOT": -0.01245602, "MEAN_MOTION_DDOT": 0}, "tle": {"line1": "1 66427U 25259F   25335.83335647 -.01245602  00000+0 -22688-1 0  9993", "line2": "2 66427  42.9995 111.1097 0001503 273.0199 240.5616 15.51420859  4520"}}, "geometry": {"type": "Point", "coordinates": [172.8905145091943, 40.026306025235996]}}, {"type": "Feature", "properties": {"norad_id": 66428, "name": "STARLINK-35610", "group": "last-30-days", "lat": 40.56754165720604, "lon": 175.2971444649634, "alt_km": 410.587355223297, "timestamp": "2025-12-02T06:27:51.800747+00:00", "meta": {"OBJECT_NAME": "STARLINK-35610", "OBJECT_ID": "2025-259G", "EPOCH": "2025-12-01T20:00:01.999008", "MEAN_MOTION": 15.51412627, "ECCENTRICITY": 0.0001424, "INCLINATION": 42.9995, "RA_OF_ASC_NODE": 111.1048, "ARG_OF_PERICENTER": 276.7619, "MEAN_ANOMALY": 238.7362, "EPHEMERIS_TYPE": 0, "CLASSIFICATION_TYPE": "U", "NORAD_CAT_ID": 66428, "ELEMENT_SET_NO": 999, "REV_AT_EPOCH": 452, "BSTAR": -0.022428, "MEAN_MOTION_DOT": -0.01232221, "MEAN_MOTION_DDOT": 0}, "tle": {"line1": "1 66428U 25259G   25335.83335647 -.01232221  00000+0 -22428-1 0  9999", "line2": "2 66428  42.9995 111.1048 0001424 276.7619 238.7362 15.51412627  4527"}}, "geometry": {"type": "Point", "coordinates": [175.2971444649634, 40.56754165720604]}}, {"type": "Feature", "properties": {"norad_id": 66429, "name": "STARLINK-35533", "group": "last-30-days", "lat": 41.05839557401295, "lon": 177.7421080785954, "alt_km": 410.55559126383014, "timestamp": "2025-12-02T06:27:51.800757+00:00", "meta": {"OBJECT_NAME": "STARLINK-35533", "OBJECT_ID": "2025-259H", "EPOCH": "2025-12-01T20:00:01.999008", "MEAN_MOTION": 15.5141965, "ECCENTRICITY": 0.0001412, "INCLINATION": 42.9997, "RA_OF_ASC_NODE": 111.0989, "ARG_OF_PERICENTER": 276.2656, "MEAN_ANOMALY": 241.1514, "EPHEMERIS_TYPE": 0, "CLASSIFICATION_TYPE": "U", "NORAD_CAT_ID": 66429, "ELEMENT_SET_NO": 999, "REV_AT_EPOCH": 452, "BSTAR": -0.022747, "MEAN_MOTION_DOT": -0.01248456, "MEAN_MOTION_DDOT": 0}, "tle": {"line1": "1 66429U 25259H   25335.83335647 -.01248456  00000+0 -22747-1 0  9991", "line2": "2 66429  42.9997 111.0989 0001412 276.2656 241.1514 15.51419650  4526"}}, "geometry": {"type": "Point", "coordinates": [177.7421080785954, 41.05839557401295]}}, {"type": "Feature", "properties": {"norad_id": 66430, "name": "STARLINK-35470", "group": "last-30-days", "lat": 41.496118650496356, "lon": -179.777271686982, "alt_km": 410.5339706022669, "timestamp": "2025-12-02T06:27:51.800768+00:00", "meta": {"OBJECT_NAME": "STARLINK-35470", "OBJECT_ID": "2025-259J", "EPOCH": "2025-12-01T20:00:01.999008", "MEAN_MOTION": 15.5141792, "ECCENTRICITY": 0.0001451, "INCLINATION": 42.9997, "RA_OF_ASC_NODE": 111.0954, "ARG_OF_PERICENTER": 276.7033, "MEAN_ANOMALY": 242.6326, "EPHEMERIS_TYPE": 0, "CLASSIFICATION_TYPE": "U", "NORAD_CAT_ID": 66430, "ELEMENT_SET_NO": 999, "REV_AT_EPOCH": 452, "BSTAR": -0.022776, "MEAN_MOTION_DOT": -0.01249867, "MEAN_MOTION_DDOT": 0}, "tle": {"line1": "1 66430U 25259J   25335.83335647 -.01249867  00000+0 -22776-1 0  9992", "line2": "2 66430  42.9997 111.0954 0001451 276.7033 242.6326 15.51417920  4522"}}, "geometry": {"type": "Point", "coordinates": [-179.777271686982, 41.496118650496356]}}, {"type": "Feature", "properties": {"norad_id": 66431, "name": "STARLINK-35439", "group": "last-30-days", "lat": 41.8799018830988, "lon": -177.2662159755213, "alt_km": 410.49222424695654, "timestamp": "2025-12-02T06:27:51.800778+00:00", "meta": {"OBJECT_NAME": "STARLINK-35439", "OBJECT_ID": "2025-259K", "EPOCH": "2025-12-01T20:00:01.999008", "MEAN_MOTION": 15.51419909, "ECCENTRICITY": 0.0001409, "INCLINATION": 42.9997, "RA_OF_ASC_NODE": 111.0892, "ARG_OF_PERICENTER": 274.1415, "MEAN_ANOMALY": 247.1129, "EPHEMERIS_TYPE": 0, "CLASSIFICATION_TYPE": "U", "NORAD_CAT_ID": 66431, "ELEMENT_SET_NO": 999, "REV_AT_EPOCH": 452, "BSTAR": -0.022877, "MEAN_MOTION_DOT": -0.01254951, "MEAN_MOTION_DDOT": 0}, "tle": {"line1": "1 66431U 25259K   25335.83335647 -.01254951  00000+0 -22877-1 0  9995", "line2": "2 66431  42.9997 111.0892 0001409 274.1415 247.1129 15.51419909  4523"}}, "geometry": {"type": "Point", "coordinates": [-177.2662159755213, 41.8799018830988]}}, {"type": "Feature", "properties": {"norad_id": 66432, "name": "STARLINK-35446", "group": "last-30-days", "lat": 42.207797628142806, "lon": -174.72842383534643, "alt_km": 410.5154612882079, "timestamp": "2025-12-02T06:27:51.800788+00:00", "meta": {"OBJECT_NAME": "STARLINK-35446", "OBJECT_ID": "2025-259L", "EPOCH": "2025-12-01T20:00:01.999008", "MEAN_MOTION": 15.51420632, "ECCENTRICITY": 0.0001495, "INCLINATION": 42.9997, "RA_OF_ASC_NODE": 111.084, "ARG_OF_PERICENTER": 272.5347, "MEAN_ANOMALY": 250.6326, "EPHEMERIS_TYPE": 0, "CLASSIFICATION_TYPE": "U", "NORAD_CAT_ID": 66432, "ELEMENT_SET_NO": 999, "REV_AT_EPOCH": 452, "BSTAR": -0.022854, "MEAN_MOTION_DOT": -0.01253887, "MEAN_MOTION_DDOT": 0}, "tle": {"line1": "1 66432U 25259L   25335.83335647 -.01253887  00000+0 -22854-1 0  9998", "line2": "2 66432  42.9997 111.0840 0001495 272.5347 250.6326 15.51420632  4521"}}, "geometry": {"type": "Point", "coordinates": [-174.72842383534643, 42.207797628142806]}}]}